[{"OBJECT_NAME":"STARLINK-31011","OBJECT_ID":"2023-191K","EPOCH":"2026-03-09T09:54:52.523424","MEAN_MOTION":15.26744803,"ECCENTRICITY":8.44e-5,"INCLINATION":42.9999,"RA_OF_ASC_NODE":104.5994,"ARG_OF_PERICENTER":246.5904,"MEAN_ANOMALY":113.4858,"EPHEMERIS_TYPE":0,"CLASSIFICATION_TYPE":"U","NORAD_CAT_ID":58517,"ELEMENT_SET_NO":999,"REV_AT_EPOCH":12543,"BSTAR":-1.6462929e-5,"MEAN_MOTION_DOT":-7.01e-6,"MEAN_MOTION_DDOT":0},{"OBJECT_NAME":"ELECTRON KICK STAGE R\/B","OBJECT_ID":"2021-004B","EPOCH":"2026-03-09T21:16:05.300544","MEAN_MOTION":14.42553081,"ECCENTRICITY":0.04246143,"INCLINATION":90.0967,"RA_OF_ASC_NODE":240.1441,"ARG_OF_PERICENTER":240.2414,"MEAN_ANOMALY":115.592,"EPHEMERIS_TYPE":0,"CLASSIFICATION_TYPE":"U","NORAD_CAT_ID":47347,"ELEMENT_SET_NO":999,"REV_AT_EPOCH":26720,"BSTAR":0.00099724223,"MEAN_MOTION_DOT":0.00010097,"MEAN_MOTION_DDOT":0}]
